STARLINK-5324           
1 55677U 23021BB  25306.47815067  .00000767  00000+0  72072-4 0  9993
2 55677  69.9980 105.1607 0003133 274.6716  85.4085 14.98318635150729
STARLINK-5592           
1 55741U 23028A   25306.42093315 -.00003126  00000+0 -25453-3 0  9995
2 55741  70.0005 205.4614 0002525 266.9695  93.1175 14.98301089147163
STARLINK-5594           
1 55742U 23028B   25306.42509301 -.00000678  00000+0 -49003-4 0  9990
2 55742  69.9988 205.4757 0002911 272.2363  87.8463 14.98328931146973
STARLINK-5602           
1 55743U 23028C   25306.42925593 -.00001213  00000+0 -93844-4 0  9994
2 55743  69.9993 205.4911 0002771 269.0634  91.0207 14.98333697146979
STARLINK-5601           
1 55744U 23028D   25306.15819164 -.00003377  00000+0 -27528-3 0  9999
2 55744  70.0014 206.1501 0003148 272.8720  87.2079 14.98346058146932
STARLINK-5579           
1 55746U 23028F   25306.46262244 -.00000248  00000+0 -13005-4 0  9996
2 55746  69.9991 205.2046 0002751 273.8057  86.2787 14.98333196146981
STARLINK-5539           
1 55747U 23028G   25306.14553680 -.00000952  00000+0 -72007-4 0  9998
2 55747  70.0010 206.1039 0002133 275.5625  84.5291 14.98314817146938
STARLINK-5580           
1 55748U 23028H   25306.14134423  .00002938  00000+0  25399-3 0  9994
2 55748  69.9988 206.0891 0002852 274.2560  85.8273 14.98315184146939
STARLINK-5573           
1 55750U 23028K   25306.47096557  .00000563  00000+0  54992-4 0  9992
2 55750  69.9987 205.2332 0003057 270.4728  89.6081 14.98337909146987
STARLINK-5577           
1 55751U 23028L   25306.14968594  .00000255  00000+0  29125-4 0  9994
2 55751  69.9987 206.1187 0002925 272.3561  87.7263 14.98335494146938
STARLINK-5613           
1 55752U 23028M   25306.44591895 -.00000433  00000+0 -28481-4 0  9998
2 55752  69.9992 205.1458 0002907 273.5873  86.4954 14.98337679146989
STARLINK-5617           
1 55753U 23028N   25306.46277628 -.00000996  00000+0 -75715-4 0  9992
2 55753  69.9991 205.2060 0003023 278.4719  81.6097 14.98336564146989
STARLINK-5612           
1 55754U 23028P   25306.45428166 -.00002383  00000+0 -19211-3 0  9997
2 55754  70.0004 205.1743 0002679 266.0606  94.0247 14.98314334146985
STARLINK-5619           
1 55755U 23028Q   25306.44191954  .00005401  00000+0  46037-3 0  9997
2 55755  69.9993 205.1243 0002629 277.3094  82.7766 14.98307324146987
STARLINK-5614           
1 55756U 23028R   25306.43759029  .00003987  00000+0  34190-3 0  9994
2 55756  70.0001 205.1162 0002348 270.7714  89.3176 14.98315976146985
STARLINK-5544           
1 55757U 23028S   25306.45845433  .00002492  00000+0  21662-3 0  9992
2 55757  69.9990 205.1892 0002689 270.3047  89.7804 14.98327538146982
