[{"OBJECT_NAME":"STARLINK-5324","OBJECT_ID":"2023-021BB","EPOCH":"2025-11-02T11:28:32.217888","MEAN_MOTION":14.98318635,"ECCENTRICITY":0.0003133,"INCLINATION":69.998,"RA_OF_ASC_NODE":105.1607,"ARG_OF_PERICENTER":274.6716,"MEAN_ANOMALY":85.4085,"EPHEMERIS_TYPE":0,"CLASSIFICATION_TYPE":"U","NORAD_CAT_ID":55677,"ELEMENT_SET_NO":999,"REV_AT_EPOCH":15072,"BSTAR":7.2072e-5,"MEAN_MOTION_DOT":7.67e-6,"MEAN_MOTION_DDOT":0},{"OBJECT_NAME":"STARLINK-5592","OBJECT_ID":"2023-028A","EPOCH":"2025-11-02T10:06:08.624160","MEAN_MOTION":14.98301089,"ECCENTRICITY":0.0002525,"INCLINATION":70.0005,"RA_OF_ASC_NODE":205.4614,"ARG_OF_PERICENTER":266.9695,"MEAN_ANOMALY":93.1175,"EPHEMERIS_TYPE":0,"CLASSIFICATION_TYPE":"U","NORAD_CAT_ID":55741,"ELEMENT_SET_NO":999,"REV_AT_EPOCH":14716,"BSTAR":-0.00025453,"MEAN_MOTION_DOT":-3.126e-5,"MEAN_MOTION_DDOT":0},{"OBJECT_NAME":"STARLINK-5594","OBJECT_ID":"2023-028B","EPOCH":"2025-11-02T10:12:08.036064","MEAN_MOTION":14.98328931,"ECCENTRICITY":0.0002911,"INCLINATION":69.9988,"RA_OF_ASC_NODE":205.4757,"ARG_OF_PERICENTER":272.2363,"MEAN_ANOMALY":87.8463,"EPHEMERIS_TYPE":0,"CLASSIFICATION_TYPE":"U","NORAD_CAT_ID":55742,"ELEMENT_SET_NO":999,"REV_AT_EPOCH":14697,"BSTAR":-4.9003e-5,"MEAN_MOTION_DOT":-6.78e-6,"MEAN_MOTION_DDOT":0},{"OBJECT_NAME":"STARLINK-5602","OBJECT_ID":"2023-028C","EPOCH":"2025-11-02T10:18:07.712352","MEAN_MOTION":14.98333697,"ECCENTRICITY":0.0002771,"INCLINATION":69.9993,"RA_OF_ASC_NODE":205.4911,"ARG_OF_PERICENTER":269.0634,"MEAN_ANOMALY":91.0207,"EPHEMERIS_TYPE":0,"CLASSIFICATION_TYPE":"U","NORAD_CAT_ID":55743,"ELEMENT_SET_NO":999,"REV_AT_EPOCH":14697,"BSTAR":-9.3844e-5,"MEAN_MOTION_DOT":-1.213e-5,"MEAN_MOTION_DDOT":0},{"OBJECT_NAME":"STARLINK-5601","OBJECT_ID":"2023-028D","EPOCH":"2025-11-02T03:47:47.757696","MEAN_MOTION":14.98346058,"ECCENTRICITY":0.00031482,"INCLINATION":70.0014,"RA_OF_ASC_NODE":206.1501,"ARG_OF_PERICENTER":272.872,"MEAN_ANOMALY":87.2079,"EPHEMERIS_TYPE":0,"CLASSIFICATION_TYPE":"U","NORAD_CAT_ID":55744,"ELEMENT_SET_NO":999,"REV_AT_EPOCH":14693,"BSTAR":-0.00027528217,"MEAN_MOTION_DOT":-3.377e-5,"MEAN_MOTION_DDOT":0},{"OBJECT_NAME":"STARLINK-5579","OBJECT_ID":"2023-028F","EPOCH":"2025-11-02T11:06:10.578816","MEAN_MOTION":14.98333196,"ECCENTRICITY":0.0002751,"INCLINATION":69.9991,"RA_OF_ASC_NODE":205.2046,"ARG_OF_PERICENTER":273.8057,"MEAN_ANOMALY":86.2787,"EPHEMERIS_TYPE":0,"CLASSIFICATION_TYPE":"U","NORAD_CAT_ID":55746,"ELEMENT_SET_NO":999,"REV_AT_EPOCH":14698,"BSTAR":-1.3005e-5,"MEAN_MOTION_DOT":-2.48e-6,"MEAN_MOTION_DDOT":0},{"OBJECT_NAME":"STARLINK-5539","OBJECT_ID":"2023-028G","EPOCH":"2025-11-02T03:29:34.379520","MEAN_MOTION":14.98314817,"ECCENTRICITY":0.00021332,"INCLINATION":70.001,"RA_OF_ASC_NODE":206.1039,"ARG_OF_PERICENTER":275.5625,"MEAN_ANOMALY":84.5291,"EPHEMERIS_TYPE":0,"CLASSIFICATION_TYPE":"U","NORAD_CAT_ID":55747,"ELEMENT_SET_NO":999,"REV_AT_EPOCH":14693,"BSTAR":-7.200741e-5,"MEAN_MOTION_DOT":-9.52e-6,"MEAN_MOTION_DDOT":0},{"OBJECT_NAME":"STARLINK-5580","OBJECT_ID":"2023-028H","EPOCH":"2025-11-02T03:23:32.141472","MEAN_MOTION":14.98315184,"ECCENTRICITY":0.00028529,"INCLINATION":69.9988,"RA_OF_ASC_NODE":206.0891,"ARG_OF_PERICENTER":274.256,"MEAN_ANOMALY":85.8273,"EPHEMERIS_TYPE":0,"CLASSIFICATION_TYPE":"U","NORAD_CAT_ID":55748,"ELEMENT_SET_NO":999,"REV_AT_EPOCH":14693,"BSTAR":0.00025398842,"MEAN_MOTION_DOT":2.938e-5,"MEAN_MOTION_DDOT":0},{"OBJECT_NAME":"STARLINK-5573","OBJECT_ID":"2023-028K","EPOCH":"2025-11-02T11:18:11.425248","MEAN_MOTION":14.98337909,"ECCENTRICITY":0.0003057,"INCLINATION":69.9987,"RA_OF_ASC_NODE":205.2332,"ARG_OF_PERICENTER":270.4728,"MEAN_ANOMALY":89.6081,"EPHEMERIS_TYPE":0,"CLASSIFICATION_TYPE":"U","NORAD_CAT_ID":55750,"ELEMENT_SET_NO":999,"REV_AT_EPOCH":14698,"BSTAR":5.4992e-5,"MEAN_MOTION_DOT":5.63e-6,"MEAN_MOTION_DDOT":0},{"OBJECT_NAME":"STARLINK-5577","OBJECT_ID":"2023-028L","EPOCH":"2025-11-02T03:35:32.865216","MEAN_MOTION":14.98335494,"ECCENTRICITY":0.00029252,"INCLINATION":69.9987,"RA_OF_ASC_NODE":206.1187,"ARG_OF_PERICENTER":272.3561,"MEAN_ANOMALY":87.7263,"EPHEMERIS_TYPE":0,"CLASSIFICATION_TYPE":"U","NORAD_CAT_ID":55751,"ELEMENT_SET_NO":999,"REV_AT_EPOCH":14693,"BSTAR":2.9124539e-5,"MEAN_MOTION_DOT":2.55e-6,"MEAN_MOTION_DDOT":0},{"OBJECT_NAME":"STARLINK-5613","OBJECT_ID":"2023-028M","EPOCH":"2025-11-02T10:42:07.397280","MEAN_MOTION":14.98337679,"ECCENTRICITY":0.0002907,"INCLINATION":69.9992,"RA_OF_ASC_NODE":205.1458,"ARG_OF_PERICENTER":273.5873,"MEAN_ANOMALY":86.4954,"EPHEMERIS_TYPE":0,"CLASSIFICATION_TYPE":"U","NORAD_CAT_ID":55752,"ELEMENT_SET_NO":999,"REV_AT_EPOCH":14698,"BSTAR":-2.8481e-5,"MEAN_MOTION_DOT":-4.33e-6,"MEAN_MOTION_DDOT":0},{"OBJECT_NAME":"STARLINK-5617","OBJECT_ID":"2023-028N","EPOCH":"2025-11-02T11:06:23.870592","MEAN_MOTION":14.98336564,"ECCENTRICITY":0.0003023,"INCLINATION":69.9991,"RA_OF_ASC_NODE":205.206,"ARG_OF_PERICENTER":278.4719,"MEAN_ANOMALY":81.6097,"EPHEMERIS_TYPE":0,"CLASSIFICATION_TYPE":"U","NORAD_CAT_ID":55753,"ELEMENT_SET_NO":999,"REV_AT_EPOCH":14698,"BSTAR":-7.5715e-5,"MEAN_MOTION_DOT":-9.96e-6,"MEAN_MOTION_DDOT":0},{"OBJECT_NAME":"STARLINK-5612","OBJECT_ID":"2023-028P","EPOCH":"2025-11-02T10:54:09.935424","MEAN_MOTION":14.98314334,"ECCENTRICITY":0.0002679,"INCLINATION":70.0004,"RA_OF_ASC_NODE":205.1743,"ARG_OF_PERICENTER":266.0606,"MEAN_ANOMALY":94.0247,"EPHEMERIS_TYPE":0,"CLASSIFICATION_TYPE":"U","NORAD_CAT_ID":55754,"ELEMENT_SET_NO":999,"REV_AT_EPOCH":14698,"BSTAR":-0.00019211,"MEAN_MOTION_DOT":-2.383e-5,"MEAN_MOTION_DDOT":0},{"OBJECT_NAME":"STARLINK-5619","OBJECT_ID":"2023-028Q","EPOCH":"2025-11-02T10:36:21.848256","MEAN_MOTION":14.98307324,"ECCENTRICITY":0.0002629,"INCLINATION":69.9993,"RA_OF_ASC_NODE":205.1243,"ARG_OF_PERICENTER":277.3094,"MEAN_ANOMALY":82.7766,"EPHEMERIS_TYPE":0,"CLASSIFICATION_TYPE":"U","NORAD_CAT_ID":55755,"ELEMENT_SET_NO":999,"REV_AT_EPOCH":14698,"BSTAR":0.00046037,"MEAN_MOTION_DOT":5.401e-5,"MEAN_MOTION_DDOT":0},{"OBJECT_NAME":"STARLINK-5614","OBJECT_ID":"2023-028R","EPOCH":"2025-11-02T10:30:07.801056","MEAN_MOTION":14.98315976,"ECCENTRICITY":0.0002348,"INCLINATION":70.0001,"RA_OF_ASC_NODE":205.1162,"ARG_OF_PERICENTER":270.7714,"MEAN_ANOMALY":89.3176,"EPHEMERIS_TYPE":0,"CLASSIFICATION_TYPE":"U","NORAD_CAT_ID":55756,"ELEMENT_SET_NO":999,"REV_AT_EPOCH":14698,"BSTAR":0.0003419,"MEAN_MOTION_DOT":3.987e-5,"MEAN_MOTION_DDOT":0},{"OBJECT_NAME":"STARLINK-5544","OBJECT_ID":"2023-028S","EPOCH":"2025-11-02T11:00:10.454112","MEAN_MOTION":14.98327538,"ECCENTRICITY":0.0002689,"INCLINATION":69.999,"RA_OF_ASC_NODE":205.1892,"ARG_OF_PERICENTER":270.3047,"MEAN_ANOMALY":89.7804,"EPHEMERIS_TYPE":0,"CLASSIFICATION_TYPE":"U","NORAD_CAT_ID":55757,"ELEMENT_SET_NO":999,"REV_AT_EPOCH":14698,"BSTAR":0.00021662,"MEAN_MOTION_DOT":2.492e-5,"MEAN_MOTION_DDOT":0}]
